{
  "type": "FeatureCollection",
  "metadata": {
    "synthetic": true,
    "purpose": "visualization / route-renderer stress test only",
    "behavior_model_fit": false,
    "anti_cheat_tuning": false,
    "source": "V2 geometry plus generic seeded perturbation",
    "geometry_length_m": 2205.6
  },
  "features": [
    {
      "type": "Feature",
      "properties": {
        "name": "synthetic-geometry-v3-stresstest",
        "synthetic": true,
        "point_count": 463
      },
      "geometry": {
        "type": "LineString",
        "coordinates": [
          [
            117.20592586,
            31.77356063
          ],
          [
            117.20592428,
            31.77360358
          ],
          [
            117.20592346,
            31.77364586
          ],
          [
            117.20592346,
            31.77368937
          ],
          [
            117.20592188,
            31.7737327
          ],
          [
            117.20592338,
            31.77377514
          ],
          [
            117.20592198,
            31.77381801
          ],
          [
            117.20592214,
            31.77386101
          ],
          [
            117.20592238,
            31.77390368
          ],
          [
            117.20591978,
            31.77394643
          ],
          [
            117.20591781,
            31.77398937
          ],
          [
            117.20591936,
            31.77403161
          ],
          [
            117.20591924,
            31.77407505
          ],
          [
            117.20592003,
            31.77411775
          ],
          [
            117.2059182,
            31.77416046
          ],
          [
            117.20591992,
            31.77420329
          ],
          [
            117.20592128,
            31.77424622
          ],
          [
            117.20591887,
            31.77428896
          ],
          [
            117.20592112,
            31.77433145
          ],
          [
            117.20592594,
            31.77437572
          ],
          [
            117.20593676,
            31.77441964
          ],
          [
            117.20595187,
            31.77446273
          ],
          [
            117.20597974,
            31.77450056
          ],
          [
            117.20600882,
            31.77453816
          ],
          [
            117.20604603,
            31.77456943
          ],
          [
            117.20608551,
            31.77459801
          ],
          [
            117.20613048,
            31.77462009
          ],
          [
            117.20617893,
            31.77463768
          ],
          [
            117.20622941,
            31.774652
          ],
          [
            117.20628089,
            31.77465757
          ],
          [
            117.20633322,
            31.77465839
          ],
          [
            117.20638586,
            31.77465101
          ],
          [
            117.20643521,
            31.77463916
          ],
          [
            117.20648474,
            31.77462055
          ],
          [
            117.20652955,
            31.77459945
          ],
          [
            117.20657129,
            31.77457135
          ],
          [
            117.2066063,
            31.77453823
          ],
          [
            117.20663754,
            31.77450226
          ],
          [
            117.20666136,
            31.77446231
          ],
          [
            117.2066789,
            31.77441975
          ],
          [
            117.20668793,
            31.77437562
          ],
          [
            117.20669329,
            31.7743318
          ],
          [
            117.20669278,
            31.77428849
          ],
          [
            117.20668798,
            31.77424557
          ],
          [
            117.20669033,
            31.7742027
          ],
          [
            117.20668992,
            31.77416149
          ],
          [
            117.20668745,
            31.77411815
          ],
          [
            117.20668966,
            31.77407489
          ],
          [
            117.20668597,
            31.77403225
          ],
          [
            117.20668763,
            31.77398982
          ],
          [
            117.20668804,
            31.77394658
          ],
          [
            117.20668799,
            31.77390419
          ],
          [
            117.20668632,
            31.77386107
          ],
          [
            117.20668607,
            31.77381765
          ],
          [
            117.2066852,
            31.77377559
          ],
          [
            117.20668758,
            31.77373212
          ],
          [
            117.20668396,
            31.77368968
          ],
          [
            117.20668265,
            31.77364679
          ],
          [
            117.20668116,
            31.7736045
          ],
          [
            117.20668182,
            31.77356263
          ],
          [
            117.20667682,
            31.77351783
          ],
          [
            117.20666578,
            31.77347611
          ],
          [
            117.20664728,
            31.77343525
          ],
          [
            117.206626,
            31.77339594
          ],
          [
            117.20659567,
            31.77336191
          ],
          [
            117.20656076,
            31.77332982
          ],
          [
            117.206524,
            31.77330007
          ],
          [
            117.20647954,
            31.77327822
          ],
          [
            117.20643271,
            31.77325911
          ],
          [
            117.20638261,
            31.7732482
          ],
          [
            117.20633221,
            31.77324308
          ],
          [
            117.20628063,
            31.77324115
          ],
          [
            117.20623081,
            31.77324813
          ],
          [
            117.20617982,
            31.77325872
          ],
          [
            117.20613362,
            31.77327893
          ],
          [
            117.20609118,
            31.77330164
          ],
          [
            117.20605131,
            31.77332815
          ],
          [
            117.20601743,
            31.77336127
          ],
          [
            117.20598545,
            31.77339596
          ],
          [
            117.20596177,
            31.77343357
          ],
          [
            117.20594125,
            31.77347528
          ],
          [
            117.20593372,
            31.77351907
          ],
          [
            117.20593068,
            31.77356269
          ],
          [
            117.20591404,
            31.77356235
          ],
          [
            117.20591477,
            31.77360489
          ],
          [
            117.20591222,
            31.77364742
          ],
          [
            117.20591283,
            31.77368987
          ],
          [
            117.2059172,
            31.77373283
          ],
          [
            117.20591422,
            31.77377572
          ],
          [
            117.20591406,
            31.77381826
          ],
          [
            117.20591373,
            31.77386056
          ],
          [
            117.20591448,
            31.77390382
          ],
          [
            117.20591286,
            31.77394631
          ],
          [
            117.20591063,
            31.77398934
          ],
          [
            117.20591176,
            31.77403232
          ],
          [
            117.20591084,
            31.77407443
          ],
          [
            117.20591013,
            31.77411743
          ],
          [
            117.20591194,
            31.77416019
          ],
          [
            117.20591093,
            31.77420302
          ],
          [
            117.20590921,
            31.7742459
          ],
          [
            117.20591079,
            31.77428827
          ],
          [
            117.20590947,
            31.77433049
          ],
          [
            117.20591241,
            31.77437482
          ],
          [
            117.20592043,
            31.77441895
          ],
          [
            117.20593534,
            31.77446052
          ],
          [
            117.20596054,
            31.77450017
          ],
          [
            117.20598804,
            31.77453821
          ],
          [
            117.20602382,
            31.77457153
          ],
          [
            117.20606319,
            31.77460066
          ],
          [
            117.20610629,
            31.7746251
          ],
          [
            117.20615481,
            31.77464327
          ],
          [
            117.20620155,
            31.77466084
          ],
          [
            117.20625324,
            31.77466986
          ],
          [
            117.20630626,
            31.77467077
          ],
          [
            117.20635836,
            31.77466846
          ],
          [
            117.20640919,
            31.77465933
          ],
          [
            117.20645953,
            31.77464514
          ],
          [
            117.20650549,
            31.77462517
          ],
          [
            117.20654891,
            31.77460106
          ],
          [
            117.20658907,
            31.77457145
          ],
          [
            117.20662477,
            31.77453918
          ],
          [
            117.20665286,
            31.77450204
          ],
          [
            117.20667296,
            31.77446057
          ],
          [
            117.20669068,
            31.77441876
          ],
          [
            117.20670143,
            31.77437533
          ],
          [
            117.20670714,
            31.77433211
          ],
          [
            117.20670618,
            31.77428813
          ],
          [
            117.20670722,
            31.77424569
          ],
          [
            117.20670533,
            31.77420312
          ],
          [
            117.206708,
            31.77416037
          ],
          [
            117.20670771,
            31.77411765
          ],
          [
            117.2067106,
            31.77407469
          ],
          [
            117.20670946,
            31.77403216
          ],
          [
            117.20670766,
            31.77398903
          ],
          [
            117.20671124,
            31.77394609
          ],
          [
            117.20671144,
            31.77390355
          ],
          [
            117.2067118,
            31.77386022
          ],
          [
            117.20671077,
            31.77381747
          ],
          [
            117.20671104,
            31.77377421
          ],
          [
            117.20671134,
            31.7737325
          ],
          [
            117.20671177,
            31.7736888
          ],
          [
            117.2067129,
            31.77364573
          ],
          [
            117.20671194,
            31.77360283
          ],
          [
            117.20671072,
            31.77355989
          ],
          [
            117.20670738,
            31.77351479
          ],
          [
            117.20669614,
            31.77347216
          ],
          [
            117.20667819,
            31.77342973
          ],
          [
            117.20665391,
            31.77338907
          ],
          [
            117.20662397,
            31.77335338
          ],
          [
            117.20659028,
            31.77331828
          ],
          [
            117.2065509,
            31.77328892
          ],
          [
            117.20650712,
            31.77326529
          ],
          [
            117.20645991,
            31.77324538
          ],
          [
            117.20640998,
            31.77323213
          ],
          [
            117.20635719,
            31.77322347
          ],
          [
            117.2063052,
            31.77322345
          ],
          [
            117.2062539,
            31.77322622
          ],
          [
            117.20620344,
            31.77323723
          ],
          [
            117.20615438,
            31.77325006
          ],
          [
            117.20610968,
            31.77327112
          ],
          [
            117.20606471,
            31.77329366
          ],
          [
            117.20602645,
            31.77332359
          ],
          [
            117.20599394,
            31.77335727
          ],
          [
            117.2059648,
            31.77339356
          ],
          [
            117.20594142,
            31.77343224
          ],
          [
            117.20592256,
            31.77347416
          ],
          [
            117.20591312,
            31.77351774
          ],
          [
            117.20590693,
            31.77356085
          ],
          [
            117.20591997,
            31.77356139
          ],
          [
            117.20591983,
            31.77360337
          ],
          [
            117.20592007,
            31.77364613
          ],
          [
            117.20591876,
            31.77368922
          ],
          [
            117.20592128,
            31.77373192
          ],
          [
            117.20591926,
            31.77377423
          ],
          [
            117.2059196,
            31.77381739
          ],
          [
            117.20591915,
            31.77385944
          ],
          [
            117.20592273,
            31.77390341
          ],
          [
            117.20592142,
            31.77394568
          ],
          [
            117.20591862,
            31.77398846
          ],
          [
            117.20591811,
            31.77403086
          ],
          [
            117.20592043,
            31.77407372
          ],
          [
            117.20592265,
            31.77411661
          ],
          [
            117.20592134,
            31.77415942
          ],
          [
            117.20592175,
            31.77420211
          ],
          [
            117.20592254,
            31.77424465
          ],
          [
            117.20592111,
            31.77428746
          ],
          [
            117.20592089,
            31.77432951
          ],
          [
            117.20592466,
            31.7743725
          ],
          [
            117.20593582,
            31.77441465
          ],
          [
            117.20595277,
            31.7744541
          ],
          [
            117.20597681,
            31.77449173
          ],
          [
            117.20600492,
            31.77452606
          ],
          [
            117.20603728,
            31.77455829
          ],
          [
            117.20607575,
            31.77458623
          ],
          [
            117.20611548,
            31.77460968
          ],
          [
            117.20616003,
            31.7746295
          ],
          [
            117.20620757,
            31.77464285
          ],
          [
            117.20625538,
            31.77465224
          ],
          [
            117.20630528,
            31.77465601
          ],
          [
            117.20635635,
            31.77465549
          ],
          [
            117.20640554,
            31.77464693
          ],
          [
            117.20645257,
            31.77463276
          ],
          [
            117.20649864,
            31.77461514
          ],
          [
            117.20654031,
            31.7745899
          ],
          [
            117.2065778,
            31.7745616
          ],
          [
            117.20661153,
            31.77452991
          ],
          [
            117.20663972,
            31.77449444
          ],
          [
            117.20666302,
            31.7744566
          ],
          [
            117.20667748,
            31.77441482
          ],
          [
            117.20668873,
            31.77437422
          ],
          [
            117.20668973,
            31.77433026
          ],
          [
            117.20669233,
            31.77428761
          ],
          [
            117.20669118,
            31.77424491
          ],
          [
            117.20669184,
            31.77420196
          ],
          [
            117.20669104,
            31.77415955
          ],
          [
            117.20669301,
            31.77411606
          ],
          [
            117.20669442,
            31.77407366
          ],
          [
            117.20669392,
            31.77402981
          ],
          [
            117.20669468,
            31.77398715
          ],
          [
            117.2066969,
            31.7739454
          ],
          [
            117.206698,
            31.77390221
          ],
          [
            117.20669675,
            31.77385921
          ],
          [
            117.20669742,
            31.77381687
          ],
          [
            117.20669432,
            31.77377368
          ],
          [
            117.20669852,
            31.77373035
          ],
          [
            117.20669774,
            31.77368749
          ],
          [
            117.20669956,
            31.77364564
          ],
          [
            117.2066988,
            31.77360247
          ],
          [
            117.20669751,
            31.7735597
          ],
          [
            117.20669483,
            31.77351625
          ],
          [
            117.2066844,
            31.77347367
          ],
          [
            117.20666976,
            31.77343231
          ],
          [
            117.20664503,
            31.77339375
          ],
          [
            117.20661717,
            31.77335714
          ],
          [
            117.20658519,
            31.77332306
          ],
          [
            117.20654561,
            31.77329534
          ],
          [
            117.20650377,
            31.7732694
          ],
          [
            117.20645755,
            31.77324999
          ],
          [
            117.20640899,
            31.77323659
          ],
          [
            117.20635801,
            31.77322854
          ],
          [
            117.20630577,
            31.77322423
          ],
          [
            117.20625486,
            31.77322874
          ],
          [
            117.20620456,
            31.77323604
          ],
          [
            117.20615536,
            31.77324865
          ],
          [
            117.20610906,
            31.77326798
          ],
          [
            117.2060671,
            31.77329391
          ],
          [
            117.20602786,
            31.77332344
          ],
          [
            117.205995,
            31.77335595
          ],
          [
            117.20596472,
            31.77339265
          ],
          [
            117.20594516,
            31.77343253
          ],
          [
            117.20593033,
            31.77347367
          ],
          [
            117.20592091,
            31.7735171
          ],
          [
            117.20591611,
            31.77355965
          ],
          [
            117.20589971,
            31.77355977
          ],
          [
            117.20589954,
            31.77360291
          ],
          [
            117.20589849,
            31.7736451
          ],
          [
            117.20589891,
            31.77368864
          ],
          [
            117.20589889,
            31.77373068
          ],
          [
            117.20589711,
            31.77377336
          ],
          [
            117.20589893,
            31.77381645
          ],
          [
            117.20589727,
            31.77385881
          ],
          [
            117.20589845,
            31.77390248
          ],
          [
            117.20589785,
            31.77394502
          ],
          [
            117.20589817,
            31.7739882
          ],
          [
            117.20589887,
            31.77403053
          ],
          [
            117.205897,
            31.77407333
          ],
          [
            117.20589692,
            31.77411648
          ],
          [
            117.20589636,
            31.77415895
          ],
          [
            117.20589732,
            31.77420216
          ],
          [
            117.20589657,
            31.77424494
          ],
          [
            117.20589676,
            31.7742874
          ],
          [
            117.20589834,
            31.77433072
          ],
          [
            117.20590262,
            31.77437402
          ],
          [
            117.20591268,
            31.7744169
          ],
          [
            117.205927,
            31.77445799
          ],
          [
            117.2059493,
            31.77449723
          ],
          [
            117.20597559,
            31.77453529
          ],
          [
            117.20600781,
            31.77456876
          ],
          [
            117.20604912,
            31.77459582
          ],
          [
            117.20609056,
            31.7746212
          ],
          [
            117.20613465,
            31.77464234
          ],
          [
            117.20618269,
            31.77465726
          ],
          [
            117.20623198,
            31.77466666
          ],
          [
            117.2062818,
            31.7746709
          ],
          [
            117.20633356,
            31.77467082
          ],
          [
            117.20638107,
            31.77466256
          ],
          [
            117.20643094,
            31.77465392
          ],
          [
            117.20647699,
            31.77463632
          ],
          [
            117.20652088,
            31.77461612
          ],
          [
            117.20656167,
            31.77459132
          ],
          [
            117.20659886,
            31.77456214
          ],
          [
            117.20662908,
            31.77452813
          ],
          [
            117.20665596,
            31.77449316
          ],
          [
            117.20667704,
            31.77445448
          ],
          [
            117.20669346,
            31.77441413
          ],
          [
            117.20670528,
            31.77437295
          ],
          [
            117.20670679,
            31.77433021
          ],
          [
            117.2067087,
            31.77428695
          ],
          [
            117.20670831,
            31.77424427
          ],
          [
            117.20670783,
            31.77420089
          ],
          [
            117.2067098,
            31.77415856
          ],
          [
            117.20670922,
            31.77411642
          ],
          [
            117.20671324,
            31.77407351
          ],
          [
            117.20671246,
            31.77403048
          ],
          [
            117.20670996,
            31.77398736
          ],
          [
            117.20671336,
            31.77394519
          ],
          [
            117.20671218,
            31.77390255
          ],
          [
            117.20671033,
            31.77385996
          ],
          [
            117.20670913,
            31.77381703
          ],
          [
            117.20670825,
            31.77377442
          ],
          [
            117.20670941,
            31.77373182
          ],
          [
            117.20670964,
            31.77368965
          ],
          [
            117.20671335,
            31.77364606
          ],
          [
            117.20671095,
            31.77360371
          ],
          [
            117.20671163,
            31.7735619
          ],
          [
            117.20670777,
            31.77351794
          ],
          [
            117.20669616,
            31.77347544
          ],
          [
            117.20668099,
            31.77343541
          ],
          [
            117.20665969,
            31.77339652
          ],
          [
            117.2066344,
            31.77335939
          ],
          [
            117.20660059,
            31.77332718
          ],
          [
            117.20656405,
            31.77329708
          ],
          [
            117.20652294,
            31.77327289
          ],
          [
            117.20647773,
            31.7732527
          ],
          [
            117.20643217,
            31.7732356
          ],
          [
            117.20638279,
            31.7732245
          ],
          [
            117.20633388,
            31.77321729
          ],
          [
            117.20628239,
            31.77321765
          ],
          [
            117.20623243,
            31.7732257
          ],
          [
            117.20618365,
            31.77323441
          ],
          [
            117.20613471,
            31.77324823
          ],
          [
            117.20608917,
            31.77326772
          ],
          [
            117.20604665,
            31.77329242
          ],
          [
            117.20600771,
            31.77332108
          ],
          [
            117.20597506,
            31.77335437
          ],
          [
            117.20594805,
            31.77339276
          ],
          [
            117.20592486,
            31.77343121
          ],
          [
            117.2059078,
            31.77347278
          ],
          [
            117.20589923,
            31.77351639
          ],
          [
            117.20589403,
            31.77355919
          ],
          [
            117.20590683,
            31.7735609
          ],
          [
            117.20590733,
            31.7736032
          ],
          [
            117.20590624,
            31.77364517
          ],
          [
            117.20590703,
            31.77368895
          ],
          [
            117.20590837,
            31.77373142
          ],
          [
            117.2059063,
            31.77377489
          ],
          [
            117.2059028,
            31.77381701
          ],
          [
            117.20590313,
            31.7738611
          ],
          [
            117.20590349,
            31.77390254
          ],
          [
            117.2059041,
            31.77394688
          ],
          [
            117.20590526,
            31.77398926
          ],
          [
            117.20590434,
            31.77403146
          ],
          [
            117.20590371,
            31.77407478
          ],
          [
            117.20590364,
            31.77411789
          ],
          [
            117.20590842,
            31.77416019
          ],
          [
            117.20590848,
            31.77420274
          ],
          [
            117.20590612,
            31.77424578
          ],
          [
            117.20590641,
            31.77428896
          ],
          [
            117.20590872,
            31.77433193
          ],
          [
            117.2059112,
            31.77437587
          ],
          [
            117.20591936,
            31.77442055
          ],
          [
            117.20593808,
            31.7744621
          ],
          [
            117.20596248,
            31.77450137
          ],
          [
            117.20598913,
            31.77453936
          ],
          [
            117.20602632,
            31.77457121
          ],
          [
            117.2060645,
            31.77459986
          ],
          [
            117.20610876,
            31.77462445
          ],
          [
            117.20615512,
            31.7746441
          ],
          [
            117.20620412,
            31.77465919
          ],
          [
            117.20625551,
            31.77466725
          ],
          [
            117.20630763,
            31.77467048
          ],
          [
            117.2063593,
            31.77466549
          ],
          [
            117.20641101,
            31.77465709
          ],
          [
            117.20645922,
            31.77464137
          ],
          [
            117.20650468,
            31.77462028
          ],
          [
            117.20654657,
            31.77459669
          ],
          [
            117.20658666,
            31.77456805
          ],
          [
            117.20661784,
            31.77453381
          ],
          [
            117.20664573,
            31.77449749
          ],
          [
            117.20666915,
            31.77445877
          ],
          [
            117.20668224,
            31.77441638
          ],
          [
            117.20669227,
            31.77437346
          ],
          [
            117.20669262,
            31.77433058
          ],
          [
            117.20669384,
            31.77428878
          ],
          [
            117.2066914,
            31.77424563
          ],
          [
            117.20669066,
            31.77420233
          ],
          [
            117.20669321,
            31.77416009
          ],
          [
            117.20669294,
            31.77411743
          ],
          [
            117.20669099,
            31.77407462
          ],
          [
            117.2066913,
            31.77403164
          ],
          [
            117.20669061,
            31.77398982
          ],
          [
            117.20669157,
            31.77394638
          ],
          [
            117.20669445,
            31.77390359
          ],
          [
            117.20669291,
            31.7738617
          ],
          [
            117.20669071,
            31.77381772
          ],
          [
            117.20669462,
            31.77377604
          ],
          [
            117.20669206,
            31.77373294
          ],
          [
            117.20669252,
            31.77368966
          ],
          [
            117.20669241,
            31.77364726
          ],
          [
            117.2066904,
            31.77360467
          ],
          [
            117.20669501,
            31.77356196
          ],
          [
            117.2066894,
            31.77351842
          ],
          [
            117.20668014,
            31.7734762
          ],
          [
            117.20666376,
            31.77343615
          ],
          [
            117.20664264,
            31.77339693
          ],
          [
            117.20661475,
            31.77336055
          ],
          [
            117.20658096,
            31.77332846
          ],
          [
            117.20654196,
            31.77330252
          ],
          [
            117.20650029,
            31.77327617
          ],
          [
            117.20645505,
            31.77325697
          ],
          [
            117.206407,
            31.77324606
          ],
          [
            117.20635759,
            31.77323623
          ],
          [
            117.20630696,
            31.77323335
          ],
          [
            117.20625495,
            31.77323482
          ],
          [
            117.2062078,
            31.77324388
          ],
          [
            117.2061602,
            31.77326099
          ],
          [
            117.20611422,
            31.77327761
          ],
          [
            117.20607306,
            31.77330206
          ],
          [
            117.20603458,
            31.77332966
          ],
          [
            117.20600159,
            31.7733618
          ],
          [
            117.20597392,
            31.77339827
          ],
          [
            117.20595192,
            31.77343637
          ],
          [
            117.20593549,
            31.77347668
          ],
          [
            117.20592745,
            31.7735191
          ],
          [
            117.20592486,
            31.77356161
          ],
          [
            117.20592903,
            31.7735609
          ],
          [
            117.20592742,
            31.77360402
          ],
          [
            117.20592733,
            31.77364676
          ],
          [
            117.20592461,
            31.77368983
          ],
          [
            117.20592375,
            31.7737331
          ],
          [
            117.20592679,
            31.77377574
          ],
          [
            117.20592621,
            31.7738183
          ],
          [
            117.20592599,
            31.77386118
          ],
          [
            117.20592267,
            31.77390394
          ],
          [
            117.20592231,
            31.77394679
          ],
          [
            117.20592029,
            31.77398933
          ],
          [
            117.20591988,
            31.77403276
          ],
          [
            117.20592111,
            31.77407416
          ],
          [
            117.2059203,
            31.7741171
          ],
          [
            117.20592183,
            31.77416052
          ],
          [
            117.20591682,
            31.77420361
          ],
          [
            117.20591716,
            31.77424577
          ],
          [
            117.20592087,
            31.77428902
          ],
          [
            117.20591904,
            31.77433165
          ],
          [
            117.20592428,
            31.77437577
          ],
          [
            117.20593479,
            31.7744204
          ],
          [
            117.20595316,
            31.7744621
          ],
          [
            117.20597535,
            31.77450207
          ],
          [
            117.20600727,
            31.7745384
          ],
          [
            117.20604446,
            31.77456974
          ],
          [
            117.20608497,
            31.77459808
          ],
          [
            117.20613027,
            31.77461988
          ],
          [
            117.20617785,
            31.77463867
          ],
          [
            117.20622771,
            31.77465086
          ],
          [
            117.20628015,
            31.77465596
          ],
          [
            117.20633258,
            31.77465432
          ],
          [
            117.20638385,
            31.77464905
          ],
          [
            117.20643463,
            31.77463859
          ],
          [
            117.20648316,
            31.77462205
          ],
          [
            117.20652909,
            31.77459878
          ],
          [
            117.20656917,
            31.77457059
          ],
          [
            117.20660401,
            31.77453821
          ],
          [
            117.20662065,
            31.77451762
          ]
        ]
      }
    }
  ]
}